[{"OBJECT_NAME":"STARLINK-30294","OBJECT_ID":"2023-122V","EPOCH":"2026-03-09T22:00:01.999584","MEAN_MOTION":15.18636103,"ECCENTRICITY":0.0001234,"INCLINATION":43.0013,"RA_OF_ASC_NODE":79.6863,"ARG_OF_PERICENTER":285.8552,"MEAN_ANOMALY":215.8624,"EPHEMERIS_TYPE":0,"CLASSIFICATION_TYPE":"U","NORAD_CAT_ID":57651,"ELEMENT_SET_NO":999,"REV_AT_EPOCH":567,"BSTAR":0.056254533,"MEAN_MOTION_DOT":0.01284505,"MEAN_MOTION_DDOT":0},{"OBJECT_NAME":"SUPERVIEW NEO-1 03","OBJECT_ID":"2025-040A","EPOCH":"2026-03-09T18:28:12.817056","MEAN_MOTION":15.21682826,"ECCENTRICITY":0.00014726,"INCLINATION":97.338,"RA_OF_ASC_NODE":185.5773,"ARG_OF_PERICENTER":140.3569,"MEAN_ANOMALY":219.7775,"EPHEMERIS_TYPE":0,"CLASSIFICATION_TYPE":"U","NORAD_CAT_ID":63125,"ELEMENT_SET_NO":999,"REV_AT_EPOCH":5706,"BSTAR":4.236936e-6,"MEAN_MOTION_DOT":2.9e-7,"MEAN_MOTION_DDOT":0}]
